{
    "links": {
        "self": "http://www.neowsapp.com/rest/v1/neo/3634784?api_key=iIulBulltgU6a56xZRHN4H3l9WmuAYTsLGpBGhQ2"
    },
    "id": "3634784",
    "neo_reference_id": "3634784",
    "name": "(2013 GV79)",
    "designation": "2013 GV79",
    "nasa_jpl_url": "http://ssd.jpl.nasa.gov/sbdb.cgi?sstr=3634784",
    "absolute_magnitude_h": 23.4,
    "estimated_diameter": {
        "kilometers": {
            "estimated_diameter_min": 0.0555334912,
            "estimated_diameter_max": 0.1241766613
        },
        "meters": {
            "estimated_diameter_min": 55.5334911581,
            "estimated_diameter_max": 124.1766612574
        },
        "miles": {
            "estimated_diameter_min": 0.0345069009,
            "estimated_diameter_max": 0.0771597762
        },
        "feet": {
            "estimated_diameter_min": 182.1964991311,
            "estimated_diameter_max": 407.4037573197
        }
    },
    "is_potentially_hazardous_asteroid": false,
    "close_approach_data": [
        {
            "close_approach_date": "1952-10-30",
            "close_approach_date_full": "1952-Oct-30 23:22",
            "epoch_date_close_approach": -541816680000,
            "relative_velocity": {
                "kilometers_per_second": "10.9285300277",
                "kilometers_per_hour": "39342.7080996872",
                "miles_per_hour": "24446.0288189418"
            },
            "miss_distance": {
                "astronomical": "0.2401643706",
                "lunar": "93.4239401634",
                "kilometers": "35928078.291650622",
                "miles": "22324672.6416057036"
            },
            "orbiting_body": "Earth"
        },
        {
            "close_approach_date": "2009-10-22",
            "close_approach_date_full": "2009-Oct-22 20:22",
            "epoch_date_close_approach": 1256242920000,
            "relative_velocity": {
                "kilometers_per_second": "20.5169112302",
                "kilometers_per_hour": "73860.8804288406",
                "miles_per_hour": "45894.2787309093"
            },
            "miss_distance": {
                "astronomical": "0.2961831435",
                "lunar": "115.2152428215",
                "kilometers": "44308367.397504345",
                "miles": "27531942.827656161"
            },
            "orbiting_body": "Earth"
        },
        {
            "close_approach_date": "2013-04-07",
            "close_approach_date_full": "2013-Apr-07 07:46",
            "epoch_date_close_approach": 1365320760000,
            "relative_velocity": {
                "kilometers_per_second": "15.2448277057",
                "kilometers_per_hour": "54881.3797406543",
                "miles_per_hour": "34101.1550949638"
            },
            "miss_distance": {
                "astronomical": "0.0319000295",
                "lunar": "12.4091114755",
                "kilometers": "4772176.466137165",
                "miles": "2965292.953596277"
            },
            "orbiting_body": "Earth"
        }
    ],
    "orbital_data": {
        "orbit_id": "11",
        "orbit_determination_date": "2017-04-06 08:46:06",
        "first_observation_date": "2013-04-13",
        "last_observation_date": "2013-05-02",
        "data_arc_in_days": 19,
        "observations_used": 37,
        "orbit_uncertainty": "8",
        "minimum_orbit_intersection": ".0150586",
        "jupiter_tisserand_invariant": "4.712",
        "epoch_osculation": "2456398.5",
        "eccentricity": ".4207176971976851",
        "semi_major_axis": "1.358234220689581",
        "inclination": "18.07789285495465",
        "ascending_node_longitude": "193.7472513456581",
        "orbital_period": "578.1764914192277",
        "perihelion_distance": ".7868010471059681",
        "perihelion_argument": "289.8594773952046",
        "aphelion_distance": "1.929667394273194",
        "perihelion_time": "2456339.095953032021",
        "mean_anomaly": "36.98776623722348",
        "mean_motion": ".6226472458544999",
        "equinox": "J2000",
        "orbit_class": {
            "orbit_class_type": "APO",
            "orbit_class_description": "Near-Earth asteroid orbits which cross the Earth’s orbit similar to that of 1862 Apollo",
            "orbit_class_range": "a (semi-major axis) > 1.0 AU; q (perihelion) < 1.017 AU"
        }
    },
    "is_sentry_object": false
}